H1 CPF 01  gfz 2021 10 10 00  7831 tandemx   
H2 1003001  6202 36605    2021 10 10 00 59 42 2021 10 15 00 00 42   120 1 1  0 0 0
H9
10 0 59497  69822.000000  0   -1152920.360   -512330.177   6760879.747
10 0 59497  69942.000000  0   -1984277.079   -159071.369   6583597.986
10 0 59497  70062.000000  0   -2774673.556    211155.104   6290600.772
10 0 59497  70182.000000  0   -3510069.252    591047.414   5887006.909
10 0 59497  70302.000000  0   -4177503.079    972894.577   5379876.260
10 0 59497  70422.000000  0   -4765327.220   1348730.818   4778092.248
10 0 59497  70542.000000  0   -5263417.670   1710500.143   4092211.696
10 0 59497  70662.000000  0   -5663356.872   2050226.912   3334282.842
10 0 59497  70782.000000  0   -5958584.092   2360188.983   2517635.431
10 0 59497  70902.000000  0   -6144511.299   2633089.609   1656645.687
10 0 59497  71022.000000  0   -6218601.287   2862224.247    766478.965
10 0 59497  71142.000000  0   -6180403.615   3041637.335   -137185.109
10 0 59497  71262.000000  0   -6031548.356   3166264.989  -1038437.214
10 0 59497  71382.000000  0   -5775697.974   3232059.627  -1921427.336
10 0 59497  71502.000000  0   -5418458.355   3236094.324  -2770652.533
10 0 59497  71622.000000  0   -4967250.178   3176642.980  -3571235.349
10 0 59497  71742.000000  0   -4431146.429   3053235.353  -4309186.969
10 0 59497  71862.000000  0   -3820680.322   2866685.904  -4971649.549
10 0 59497  71982.000000  0   -3147629.544   2619096.181  -5547114.189
10 0 59497  72102.000000  0   -2424783.318   2313832.140  -6025611.061
10 0 59497  72222.000000  0   -1665695.735   1955477.037  -6398872.632
10 0 59497  72342.000000  0    -884429.810   1549759.904  -6660464.224
10 0 59497  72462.000000  0     -95300.006   1103462.900  -6805883.762
10 0 59497  72582.000000  0     687384.361    624308.563  -6832630.271
10 0 59497  72702.000000  0    1449571.969    120829.111  -6740244.073
10 0 59497  72822.000000  0    2177717.046   -397782.471  -6530313.474
10 0 59497  72942.000000  0    2859014.168   -921835.685  -6206450.099
10 0 59497  73062.000000  0    3481620.659  -1441318.786  -5774233.464
10 0 59497  73182.000000  0    4034861.319  -1946084.776  -5241124.769
10 0 59497  73302.000000  0    4509415.130  -2426047.156  -4616350.088
10 0 59497  73422.000000  0    4897477.818  -2871380.368  -3910751.235
10 0 59497  73542.000000  0    5192897.597  -3272720.400  -3136607.538
10 0 59497  73662.000000  0    5391282.234  -3621362.038  -2307429.441
10 0 59497  73782.000000  0    5490072.990  -3909448.000  -1437725.715
10 0 59497  73902.000000  0    5488582.887  -4130145.469   -542749.470
10 0 59497  74022.000000  0    5387998.249  -4277805.379    361773.245
10 0 59497  74142.000000  0    5191342.443  -4348100.357   1259926.964
10 0 59497  74262.000000  0    4903400.963  -4338136.380   2135895.996
10 0 59497  74382.000000  0    4530611.180  -4246534.494   2974252.000
10 0 59497  74502.000000  0    4080919.796  -4073481.555   3760232.846
10 0 59497  74622.000000  0    3563611.793  -3820749.992   4480008.428
10 0 59497  74742.000000  0    2989113.538  -3491684.413   5120927.540
10 0 59497  74862.000000  0    2368777.583  -3091155.783   5671739.621
10 0 59497  74982.000000  0    1714653.588  -2625485.594   6122790.119
10 0 59497  75102.000000  0    1039249.735  -2102341.378   6466184.143
10 0 59497  75222.000000  0     355291.156  -1530606.901   6695918.488
10 0 59497  75342.000000  0    -324520.767   -920228.750   6807980.715
10 0 59497  75462.000000  0    -987743.586   -282041.536   6800414.521
10 0 59497  75582.000000  0   -1622420.476    372424.400   6673351.477
10 0 59497  75702.000000  0   -2217295.066   1031150.848   6429008.896
10 0 59497  75822.000000  0   -2762011.091   1681851.508   6071653.628
10 0 59497  75942.000000  0   -3247293.801   2312200.446   5607532.424
10 0 59497  76062.000000  0   -3665111.097   2910066.433   5044769.503
10 0 59497  76182.000000  0   -4008811.079   3463748.619   4393229.907
10 0 59497  76302.000000  0   -4273233.053   3962208.726   3664351.590
10 0 59497  76422.000000  0   -4454789.978   4395295.773   2870947.645
10 0 59497  76542.000000  0   -4551518.965   4753957.823   2026980.557
10 0 59497  76662.000000  0   -4563098.253   5030435.006   1147312.985
10 0 59497  76782.000000  0   -4490831.591   5218428.102    247440.387
10 0 59497  76902.000000  0   -4337600.342   5313240.203   -656789.065
10 0 59497  77022.000000  0   -4107782.731   5311887.853  -1549464.077
10 0 59497  77142.000000  0   -3807140.644   5213173.740  -2414900.097
10 0 59497  77262.000000  0   -3442680.640   5017725.414  -3237921.251
10 0 59497  77382.000000  0   -3022491.370   4727995.250  -4004131.143
10 0 59497  77502.000000  0   -2555562.752   4348223.816  -4700163.787
10 0 59497  77622.000000  0   -2051591.991   3884369.685  -5313911.306
10 0 59497  77742.000000  0   -1520781.952   3344008.902  -5834726.690
10 0 59497  77862.000000  0    -973634.771   2736203.892  -6253599.815
10 0 59497  77982.000000  0    -420745.117   2071345.238  -6563302.121
10 0 59497  78102.000000  0     127401.804   1360971.699  -6758499.424
10 0 59497  78222.000000  0     660623.990    617570.776  -6835834.501
10 0 59497  78342.000000  0    1169227.551   -145636.976  -6793979.394
10 0 59497  78462.000000  0    1644178.936   -914928.755  -6633654.821
10 0 59497  78582.000000  0    2077260.924  -1676319.749  -6357618.082
10 0 59497  78702.000000  0    2461212.501  -2415810.632  -5970621.147
10 0 59497  78822.000000  0    2789850.053  -3119639.647  -5479338.824
10 0 59497  78942.000000  0    3058169.372  -3774538.612  -4892265.487
10 0 59497  79062.000000  0    3262424.130  -4367984.380  -4219577.050
10 0 59497  79182.000000  0    3400179.409  -4888440.131  -3472965.038
10 0 59497  79302.000000  0    3470341.685  -5325585.964  -2665443.677
10 0 59497  79422.000000  0    3473162.045  -5670532.744  -1811127.967
10 0 59497  79542.000000  0    3410212.070  -5916010.604   -924987.955
10 0 59497  79662.000000  0    3284332.826  -6056529.677    -22583.485
10 0 59497  79782.000000  0    3099556.078  -6088505.946    880215.570
10 0 59497  79902.000000  0    2861001.645  -6010350.641   1767515.661
10 0 59497  80022.000000  0    2574752.550  -5822519.036   2623690.003
10 0 59497  80142.000000  0    2247709.755  -5527516.194   3433662.106
10 0 59497  80262.000000  0    1887432.309  -5129862.367   4183176.642
10 0 59497  80382.000000  0    1501966.706  -4636019.038   4859054.415
10 0 59497  80502.000000  0    1099670.327  -4054276.542   5449425.256
10 0 59497  80622.000000  0     689031.471  -3394606.246   5943936.442
10 0 59497  80742.000000  0     278490.651  -2668479.899   6333929.032
10 0 59497  80862.000000  0    -123731.451  -1888663.881   6612582.390
10 0 59497  80982.000000  0    -509796.632  -1068991.495   6775027.047
10 0 59497  81102.000000  0    -872400.528   -224115.999   6818425.929
10 0 59497  81222.000000  0   -1204909.803    630752.425   6742021.049
10 0 59497  81342.000000  0   -1501483.063   1480120.235   6547145.524
10 0 59497  81462.000000  0   -1757173.358   2308490.464   6237201.700
10 0 59497  81582.000000  0   -1968011.359   3100645.380   5817605.504
10 0 59497  81702.000000  0   -2131067.279   3841927.306   5295696.865
10 0 59497  81822.000000  0   -2244491.171   4518513.328   4680618.405
10 0 59497  81942.000000  0   -2307530.935   5117679.670   3983160.916
10 0 59497  82062.000000  0   -2320526.893   5628049.239   3215577.695
10 0 59497  82182.000000  0   -2284883.070   6039816.162   2391369.674
10 0 59497  82302.000000  0   -2203015.647   6344942.389   1525046.358
10 0 59497  82422.000000  0   -2078279.292   6537321.969    631865.836
10 0 59497  82542.000000  0   -1914873.297   6612908.107   -272440.604
10 0 59497  82662.000000  0   -1717730.273   6569800.107  -1171953.947
10 0 59497  82782.000000  0   -1492389.283   6408287.164  -2050859.181
10 0 59497  82902.000000  0   -1244856.267   6130842.889  -2893732.713
10 0 59497  83022.000000  0    -981457.669   5742077.301  -3685815.915
10 0 59497  83142.000000  0    -708690.598   5248649.831  -4413274.162
10 0 59497  83262.000000  0    -433073.029   4659142.889  -5063436.081
10 0 59497  83382.000000  0    -160997.027   3983901.605  -5625008.183
10 0 59497  83502.000000  0     101411.835   3234842.519  -6088263.223
10 0 59497  83622.000000  0     348425.325   2425235.071  -6445198.021
10 0 59497  83742.000000  0     574830.714   1569462.940  -6689659.495
10 0 59497  83862.000000  0     776035.490    682769.419  -6817440.886
10 0 59497  83982.000000  0     948156.246   -219010.770  -6826346.303
10 0 59497  84102.000000  0    1088090.702  -1119729.012  -6716223.949
10 0 59497  84222.000000  0    1193571.794  -2003204.527  -6488966.672
10 0 59497  84342.000000  0    1263203.820  -2853506.518  -6148483.377
10 0 59497  84462.000000  0    1296480.541  -3655236.403  -5700641.253
10 0 59497  84582.000000  0    1293782.971  -4393806.457  -5153174.679
10 0 59497  84702.000000  0    1256358.918  -5055706.151  -4515561.747
10 0 59497  84822.000000  0    1186283.593  -5628754.464  -3798872.185
10 0 59497  84942.000000  0    1086400.926  -6102333.350  -3015584.329
10 0 59497  85062.000000  0     960247.763  -6467595.420  -2179374.414
10 0 59497  85182.000000  0     811962.268  -6717641.990  -1304880.856
10 0 59497  85302.000000  0     646177.529  -6847665.517   -407446.516
10 0 59497  85422.000000  0     467903.296  -6855051.405    497155.191
10 0 59497  85542.000000  0     282398.964  -6739437.384   1393004.122
10 0 59497  85662.000000  0      95040.856  -6502728.440   2264322.434
10 0 59497  85782.000000  0     -88812.796  -6149065.280   3095762.712
10 0 59497  85902.000000  0    -263955.678  -5684745.451   3872686.999
10 0 59497  86022.000000  0    -425462.901  -5118102.340   4581428.134
10 0 59497  86142.000000  0    -568812.320  -4459346.621   5209532.562
10 0 59497  86262.000000  0    -689994.697  -3720372.363   5745978.520
99
